<?xml version="1.0" encoding="UTF-8"?>
<ndm xmlns:xsi="http://www.w3.org/2001/XMLSchema-instance" xsi:noNamespaceSchemaLocation="https://sanaregistry.org/r/ndmxml_unqualified/ndmxml-2.0.0-master-2.0.xsd">
<omm id="CCSDS_OMM_VERS" version="2.0">
<header><CREATION_DATE/><ORIGINATOR/></header><body><segment><metadata><OBJECT_NAME>KUIPER-00035</OBJECT_NAME><OBJECT_ID>2025-088AA</OBJECT_ID><CENTER_NAME>EARTH</CENTER_NAME><REF_FRAME>TEME</REF_FRAME><TIME_SYSTEM>UTC</TIME_SYSTEM><MEAN_ELEMENT_THEORY>SGP4</MEAN_ELEMENT_THEORY></metadata><data><meanElements><EPOCH>2025-07-15T14:00:01.000224</EPOCH><MEAN_MOTION>15.16280686</MEAN_MOTION><ECCENTRICITY>.0002777</ECCENTRICITY><INCLINATION>51.8788</INCLINATION><RA_OF_ASC_NODE>87.1992</RA_OF_ASC_NODE><ARG_OF_PERICENTER>55.9690</ARG_OF_PERICENTER><MEAN_ANOMALY>258.5500</MEAN_ANOMALY></meanElements><tleParameters><EPHEMERIS_TYPE>0</EPHEMERIS_TYPE><CLASSIFICATION_TYPE>U</CLASSIFICATION_TYPE><NORAD_CAT_ID>63748</NORAD_CAT_ID><ELEMENT_SET_NO>999</ELEMENT_SET_NO><REV_AT_EPOCH>482</REV_AT_EPOCH><BSTAR>-.83108E-1</BSTAR><MEAN_MOTION_DOT>-.1489345E-1</MEAN_MOTION_DOT><MEAN_MOTION_DDOT>0</MEAN_MOTION_DDOT></tleParameters></data></segment></body></omm>
<omm id="CCSDS_OMM_VERS" version="2.0">
<header><CREATION_DATE/><ORIGINATOR/></header><body><segment><metadata><OBJECT_NAME>KUIPER-00037</OBJECT_NAME><OBJECT_ID>2025-088AB</OBJECT_ID><CENTER_NAME>EARTH</CENTER_NAME><REF_FRAME>TEME</REF_FRAME><TIME_SYSTEM>UTC</TIME_SYSTEM><MEAN_ELEMENT_THEORY>SGP4</MEAN_ELEMENT_THEORY></metadata><data><meanElements><EPOCH>2025-07-15T14:00:01.000224</EPOCH><MEAN_MOTION>15.16052057</MEAN_MOTION><ECCENTRICITY>.0002697</ECCENTRICITY><INCLINATION>51.8830</INCLINATION><RA_OF_ASC_NODE>86.6964</RA_OF_ASC_NODE><ARG_OF_PERICENTER>353.6173</ARG_OF_PERICENTER><MEAN_ANOMALY>153.1871</MEAN_ANOMALY></meanElements><tleParameters><EPHEMERIS_TYPE>0</EPHEMERIS_TYPE><CLASSIFICATION_TYPE>U</CLASSIFICATION_TYPE><NORAD_CAT_ID>63749</NORAD_CAT_ID><ELEMENT_SET_NO>999</ELEMENT_SET_NO><REV_AT_EPOCH>467</REV_AT_EPOCH><BSTAR>.18931E-2</BSTAR><MEAN_MOTION_DOT>.36758E-3</MEAN_MOTION_DOT><MEAN_MOTION_DDOT>0</MEAN_MOTION_DDOT></tleParameters></data></segment></body></omm>
<omm id="CCSDS_OMM_VERS" version="2.0">
<header><CREATION_DATE/><ORIGINATOR/></header><body><segment><metadata><OBJECT_NAME>KUIPER-00038</OBJECT_NAME><OBJECT_ID>2025-088AC</OBJECT_ID><CENTER_NAME>EARTH</CENTER_NAME><REF_FRAME>TEME</REF_FRAME><TIME_SYSTEM>UTC</TIME_SYSTEM><MEAN_ELEMENT_THEORY>SGP4</MEAN_ELEMENT_THEORY></metadata><data><meanElements><EPOCH>2025-07-15T09:58:51.914496</EPOCH><MEAN_MOTION>15.37478922</MEAN_MOTION><ECCENTRICITY>.0004858</ECCENTRICITY><INCLINATION>51.8707</INCLINATION><RA_OF_ASC_NODE>83.7515</RA_OF_ASC_NODE><ARG_OF_PERICENTER>38.7546</ARG_OF_PERICENTER><MEAN_ANOMALY>321.3788</MEAN_ANOMALY></meanElements><tleParameters><EPHEMERIS_TYPE>0</EPHEMERIS_TYPE><CLASSIFICATION_TYPE>U</CLASSIFICATION_TYPE><NORAD_CAT_ID>63750</NORAD_CAT_ID><ELEMENT_SET_NO>999</ELEMENT_SET_NO><REV_AT_EPOCH>1215</REV_AT_EPOCH><BSTAR>.37456E-3</BSTAR><MEAN_MOTION_DOT>.1362E-3</MEAN_MOTION_DOT><MEAN_MOTION_DDOT>0</MEAN_MOTION_DDOT></tleParameters></data></segment></body></omm>
<omm id="CCSDS_OMM_VERS" version="2.0">
<header><CREATION_DATE/><ORIGINATOR/></header><body><segment><metadata><OBJECT_NAME>KUIPER-00039</OBJECT_NAME><OBJECT_ID>2025-134A</OBJECT_ID><CENTER_NAME>EARTH</CENTER_NAME><REF_FRAME>TEME</REF_FRAME><TIME_SYSTEM>UTC</TIME_SYSTEM><MEAN_ELEMENT_THEORY>SGP4</MEAN_ELEMENT_THEORY></metadata><data><meanElements><EPOCH>2025-07-15T09:32:52.853280</EPOCH><MEAN_MOTION>15.34733924</MEAN_MOTION><ECCENTRICITY>.0007622</ECCENTRICITY><INCLINATION>51.8677</INCLINATION><RA_OF_ASC_NODE>225.2877</RA_OF_ASC_NODE><ARG_OF_PERICENTER>193.4359</ARG_OF_PERICENTER><MEAN_ANOMALY>166.6425</MEAN_ANOMALY></meanElements><tleParameters><EPHEMERIS_TYPE>0</EPHEMERIS_TYPE><CLASSIFICATION_TYPE>U</CLASSIFICATION_TYPE><NORAD_CAT_ID>64500</NORAD_CAT_ID><ELEMENT_SET_NO>999</ELEMENT_SET_NO><REV_AT_EPOCH>461</REV_AT_EPOCH><BSTAR>.51754E-3</BSTAR><MEAN_MOTION_DOT>.17363E-3</MEAN_MOTION_DOT><MEAN_MOTION_DDOT>0</MEAN_MOTION_DDOT></tleParameters></data></segment></body></omm>
<omm id="CCSDS_OMM_VERS" version="2.0">
<header><CREATION_DATE/><ORIGINATOR/></header><body><segment><metadata><OBJECT_NAME>KUIPER-00040</OBJECT_NAME><OBJECT_ID>2025-134B</OBJECT_ID><CENTER_NAME>EARTH</CENTER_NAME><REF_FRAME>TEME</REF_FRAME><TIME_SYSTEM>UTC</TIME_SYSTEM><MEAN_ELEMENT_THEORY>SGP4</MEAN_ELEMENT_THEORY></metadata><data><meanElements><EPOCH>2025-07-15T09:51:16.625376</EPOCH><MEAN_MOTION>15.33847147</MEAN_MOTION><ECCENTRICITY>.0010825</ECCENTRICITY><INCLINATION>51.8656</INCLINATION><RA_OF_ASC_NODE>225.3665</RA_OF_ASC_NODE><ARG_OF_PERICENTER>205.5131</ARG_OF_PERICENTER><MEAN_ANOMALY>154.5321</MEAN_ANOMALY></meanElements><tleParameters><EPHEMERIS_TYPE>0</EPHEMERIS_TYPE><CLASSIFICATION_TYPE>U</CLASSIFICATION_TYPE><NORAD_CAT_ID>64501</NORAD_CAT_ID><ELEMENT_SET_NO>999</ELEMENT_SET_NO><REV_AT_EPOCH>461</REV_AT_EPOCH><BSTAR>.59227E-3</BSTAR><MEAN_MOTION_DOT>.19387E-3</MEAN_MOTION_DOT><MEAN_MOTION_DDOT>0</MEAN_MOTION_DDOT></tleParameters></data></segment></body></omm>
<omm id="CCSDS_OMM_VERS" version="2.0">
<header><CREATION_DATE/><ORIGINATOR/></header><body><segment><metadata><OBJECT_NAME>KUIPER-00041</OBJECT_NAME><OBJECT_ID>2025-134C</OBJECT_ID><CENTER_NAME>EARTH</CENTER_NAME><REF_FRAME>TEME</REF_FRAME><TIME_SYSTEM>UTC</TIME_SYSTEM><MEAN_ELEMENT_THEORY>SGP4</MEAN_ELEMENT_THEORY></metadata><data><meanElements><EPOCH>2025-07-15T14:00:01.000224</EPOCH><MEAN_MOTION>15.32437953</MEAN_MOTION><ECCENTRICITY>.0009116</ECCENTRICITY><INCLINATION>51.8692</INCLINATION><RA_OF_ASC_NODE>224.4746</RA_OF_ASC_NODE><ARG_OF_PERICENTER>199.8586</ARG_OF_PERICENTER><MEAN_ANOMALY>62.3048</MEAN_ANOMALY></meanElements><tleParameters><EPHEMERIS_TYPE>0</EPHEMERIS_TYPE><CLASSIFICATION_TYPE>U</CLASSIFICATION_TYPE><NORAD_CAT_ID>64502</NORAD_CAT_ID><ELEMENT_SET_NO>999</ELEMENT_SET_NO><REV_AT_EPOCH>417</REV_AT_EPOCH><BSTAR>-.46781E-1</BSTAR><MEAN_MOTION_DOT>-.135808E-1</MEAN_MOTION_DOT><MEAN_MOTION_DDOT>0</MEAN_MOTION_DDOT></tleParameters></data></segment></body></omm>
<omm id="CCSDS_OMM_VERS" version="2.0">
<header><CREATION_DATE/><ORIGINATOR/></header><body><segment><metadata><OBJECT_NAME>KUIPER-00042</OBJECT_NAME><OBJECT_ID>2025-134D</OBJECT_ID><CENTER_NAME>EARTH</CENTER_NAME><REF_FRAME>TEME</REF_FRAME><TIME_SYSTEM>UTC</TIME_SYSTEM><MEAN_ELEMENT_THEORY>SGP4</MEAN_ELEMENT_THEORY></metadata><data><meanElements><EPOCH>2025-07-15T09:39:10.403136</EPOCH><MEAN_MOTION>15.34460432</MEAN_MOTION><ECCENTRICITY>.0008695</ECCENTRICITY><INCLINATION>51.8655</INCLINATION><RA_OF_ASC_NODE>225.3123</RA_OF_ASC_NODE><ARG_OF_PERICENTER>193.8556</ARG_OF_PERICENTER><MEAN_ANOMALY>166.2192</MEAN_ANOMALY></meanElements><tleParameters><EPHEMERIS_TYPE>0</EPHEMERIS_TYPE><CLASSIFICATION_TYPE>U</CLASSIFICATION_TYPE><NORAD_CAT_ID>64503</NORAD_CAT_ID><ELEMENT_SET_NO>999</ELEMENT_SET_NO><REV_AT_EPOCH>461</REV_AT_EPOCH><BSTAR>.52305E-3</BSTAR><MEAN_MOTION_DOT>.17402E-3</MEAN_MOTION_DOT><MEAN_MOTION_DDOT>0</MEAN_MOTION_DDOT></tleParameters></data></segment></body></omm>
<omm id="CCSDS_OMM_VERS" version="2.0">
<header><CREATION_DATE/><ORIGINATOR/></header><body><segment><metadata><OBJECT_NAME>KUIPER-00043</OBJECT_NAME><OBJECT_ID>2025-134E</OBJECT_ID><CENTER_NAME>EARTH</CENTER_NAME><REF_FRAME>TEME</REF_FRAME><TIME_SYSTEM>UTC</TIME_SYSTEM><MEAN_ELEMENT_THEORY>SGP4</MEAN_ELEMENT_THEORY></metadata><data><meanElements><EPOCH>2025-07-15T09:34:23.373696</EPOCH><MEAN_MOTION>15.34639433</MEAN_MOTION><ECCENTRICITY>.0007997</ECCENTRICITY><INCLINATION>51.8687</INCLINATION><RA_OF_ASC_NODE>225.2958</RA_OF_ASC_NODE><ARG_OF_PERICENTER>187.4197</ARG_OF_PERICENTER><MEAN_ANOMALY>172.6671</MEAN_ANOMALY></meanElements><tleParameters><EPHEMERIS_TYPE>0</EPHEMERIS_TYPE><CLASSIFICATION_TYPE>U</CLASSIFICATION_TYPE><NORAD_CAT_ID>64504</NORAD_CAT_ID><ELEMENT_SET_NO>999</ELEMENT_SET_NO><REV_AT_EPOCH>461</REV_AT_EPOCH><BSTAR>.29613E-3</BSTAR><MEAN_MOTION_DOT>.9731E-4</MEAN_MOTION_DOT><MEAN_MOTION_DDOT>0</MEAN_MOTION_DDOT></tleParameters></data></segment></body></omm>

</ndm>
