KUIPER-00035            
1 63748U 25088AA  25196.58334491 -.01489345  00000+0 -83108-1 0  9997
2 63748  51.8788  87.1992 0002777  55.9690 258.5500 15.16280686  4822
KUIPER-00037            
1 63749U 25088AB  25196.58334491  .00036758  00000+0  18931-2 0  9994
2 63749  51.8830  86.6964 0002697 353.6173 153.1871 15.16052057  4672
KUIPER-00038            
1 63750U 25088AC  25196.41587864  .00013620  00000+0  37456-3 0  9999
2 63750  51.8707  83.7515 0004858  38.7546 321.3788 15.37478922 12157
KUIPER-00039            
1 64500U 25134A   25196.39783395  .00017363  00000+0  51754-3 0  9994
2 64500  51.8677 225.2877 0007622 193.4359 166.6425 15.34733924  4617
KUIPER-00040            
1 64501U 25134B   25196.41060909  .00019387  00000+0  59227-3 0  9998
2 64501  51.8656 225.3665 0010825 205.5131 154.5321 15.33847147  4616
KUIPER-00041            
1 64502U 25134C   25196.58334491 -.01358080  00000+0 -46781-1 0  9995
2 64502  51.8692 224.4746 0009116 199.8586  62.3048 15.32437953  4179
KUIPER-00042            
1 64503U 25134D   25196.40220374  .00017402  00000+0  52305-3 0  9999
2 64503  51.8655 225.3123 0008695 193.8556 166.2192 15.34460432  4613
KUIPER-00043            
1 64504U 25134E   25196.39888164  .00009731  00000+0  29613-3 0  9997
2 64504  51.8687 225.2958 0007997 187.4197 172.6671 15.34639433  4610
